{
  "type": "FeatureCollection",
  "features": [
    {
      "type": "Feature",
      "properties": {
        "norad_id": 65731,
        "name": "1998-067XK",
        "group": "stations",
        "lat": -51.102619722938684,
        "lon": -15.396115858951207,
        "alt_km": 365.6704425949574,
        "timestamp": "2025-12-27T04:40:44.253834+00:00",
        "meta_object_name": "1998-067XK",
        "meta_object_id": "1998-067XK",
        "meta_epoch": "2025-12-26T21:23:13.987104",
        "meta_mean_motion": 15.68524225,
        "meta_eccentricity": 0.00050937,
        "meta_inclination": 51.628,
        "meta_ra_of_asc_node": 65.2916,
        "meta_arg_of_pericenter": 333.5043,
        "meta_mean_anomaly": 26.5692,
        "meta_ephemeris_type": 0,
        "meta_classification_type": "U",
        "meta_norad_cat_id": 65731,
        "meta_element_set_no": 999,
        "meta_rev_at_epoch": 1536,
        "meta_bstar": 0.0010262184,
        "meta_mean_motion_dot": 0.00119786,
        "meta_mean_motion_ddot": 0,
        "tle_line1": "1 65731U 98067XK  25360.89113411  .00119786  00000+0  10262-2 0  9990",
        "tle_line2": "2 65731  51.6280  65.2916 0005093 333.5043  26.5692 15.68524225 15368"
      },
      "geometry": {
        "type": "Point",
        "coordinates": [
          -15.396115858951207,
          -51.102619722938684
        ]
      }
    },
    {
      "type": "Feature",
      "properties": {
        "norad_id": 65732,
        "name": "RSP-03",
        "group": "stations",
        "lat": 44.62058182763641,
        "lon": 114.11380264681279,
        "alt_km": 345.3091271992116,
        "timestamp": "2025-12-27T04:40:44.253844+00:00",
        "meta_object_name": "RSP-03",
        "meta_object_id": "1998-067XL",
        "meta_epoch": "2025-12-26T11:37:50.673792",
        "meta_mean_motion": 15.72242351,
        "meta_eccentricity": 0.0006063,
        "meta_inclination": 51.6261,
        "meta_ra_of_asc_node": 66.3111,
        "meta_arg_of_pericenter": 338.1349,
        "meta_mean_anomaly": 21.939,
        "meta_ephemeris_type": 0,
        "meta_classification_type": "U",
        "meta_norad_cat_id": 65732,
        "meta_element_set_no": 999,
        "meta_rev_at_epoch": 1532,
        "meta_bstar": 0.0010599,
        "meta_mean_motion_dot": 0.00145049,
        "meta_mean_motion_ddot": 0,
        "tle_line1": "1 65732U 98067XL  25360.48461428  .00145049  00000+0  10599-2 0  9994",
        "tle_line2": "2 65732  51.6261  66.3111 0006063 338.1349  21.9390 15.72242351 15327"
      },
      "geometry": {
        "type": "Point",
        "coordinates": [
          114.11380264681279,
          44.62058182763641
        ]
      }
    },
    {
      "type": "Feature",
      "properties": {
        "norad_id": 65733,
        "name": "GHS-01",
        "group": "stations",
        "lat": 13.368863616584807,
        "lon": 71.36295741730355,
        "alt_km": 318.0744101506489,
        "timestamp": "2025-12-27T04:40:44.253854+00:00",
        "meta_object_name": "GHS-01",
        "meta_object_id": "1998-067XM",
        "meta_epoch": "2025-12-26T21:01:30.345024",
        "meta_mean_motion": 15.81574264,
        "meta_eccentricity": 0.00094943,
        "meta_inclination": 51.6277,
        "meta_ra_of_asc_node": 62.1658,
        "meta_arg_of_pericenter": 4.8401,
        "meta_mean_anomaly": 355.2691,
        "meta_ephemeris_type": 0,
        "meta_classification_type": "U",
        "meta_norad_cat_id": 65733,
        "meta_element_set_no": 999,
        "meta_rev_at_epoch": 1541,
        "meta_bstar": 0.0015054699,
        "meta_mean_motion_dot": 0.00319127,
        "meta_mean_motion_ddot": 0,
        "tle_line1": "1 65733U 98067XM  25360.87604566  .00319127  00000+0  15055-2 0  9992",
        "tle_line2": "2 65733  51.6277  62.1658 0009494   4.8401 355.2691 15.81574264 15410"
      },
      "geometry": {
        "type": "Point",
        "coordinates": [
          71.36295741730355,
          13.368863616584807
        ]
      }
    },
    {
      "type": "Feature",
      "properties": {
        "norad_id": 65941,
        "name": "YOTSUBA-KULOVER",
        "group": "stations",
        "lat": 35.92667561512547,
        "lon": 102.25723275599022,
        "alt_km": 377.49098043965023,
        "timestamp": "2025-12-27T04:40:44.253867+00:00",
        "meta_object_name": "YOTSUBA-KULOVER",
        "meta_object_id": "1998-067XN",
        "meta_epoch": "2025-12-26T14:38:51.631584",
        "meta_mean_motion": 15.61332207,
        "meta_eccentricity": 0.00025713,
        "meta_inclination": 51.6289,
        "meta_ra_of_asc_node": 70.1673,
        "meta_arg_of_pericenter": 5.6559,
        "meta_mean_anomaly": 354.4463,
        "meta_ephemeris_type": 0,
        "meta_classification_type": "U",
        "meta_norad_cat_id": 65941,
        "meta_element_set_no": 999,
        "meta_rev_at_epoch": 1202,
        "meta_bstar": 0.00084261791,
        "meta_mean_motion_dot": 0.0007325,
        "meta_mean_motion_ddot": 0,
        "tle_line1": "1 65941U 98067XN  25360.61031981  .00073250  00000+0  84262-3 0  9991",
        "tle_line2": "2 65941  51.6289  70.1673 0002571   5.6559 354.4463 15.61332207 12021"
      },
      "geometry": {
        "type": "Point",
        "coordinates": [
          102.25723275599022,
          35.92667561512547
        ]
      }
    },
    {
      "type": "Feature",
      "properties": {
        "norad_id": 65942,
        "name": "BOTAN",
        "group": "stations",
        "lat": -33.02257254000319,
        "lon": -82.89855979017693,
        "alt_km": 375.6719494990339,
        "timestamp": "2025-12-27T04:40:44.253878+00:00",
        "meta_object_name": "BOTAN",
        "meta_object_id": "1998-067XP",
        "meta_epoch": "2025-12-26T21:36:00.133056",
        "meta_mean_motion": 15.65926329,
        "meta_eccentricity": 0.00036204,
        "meta_inclination": 51.6276,
        "meta_ra_of_asc_node": 67.6002,
        "meta_arg_of_pericenter": 350.1731,
        "meta_mean_anomaly": 9.9193,
        "meta_ephemeris_type": 0,
        "meta_classification_type": "U",
        "meta_norad_cat_id": 65942,
        "meta_element_set_no": 999,
        "meta_rev_at_epoch": 1208,
        "meta_bstar": 0.0012627246,
        "meta_mean_motion_dot": 0.00132903,
        "meta_mean_motion_ddot": 0,
        "tle_line1": "1 65942U 98067XP  25360.90000154  .00132903  00000+0  12627-2 0  9998",
        "tle_line2": "2 65942  51.6276  67.6002 0003620 350.1731   9.9193 15.65926329 12087"
      },
      "geometry": {
        "type": "Point",
        "coordinates": [
          -82.89855979017693,
          -33.02257254000319
        ]
      }
    },
    {
      "type": "Feature",
      "properties": {
        "norad_id": 65943,
        "name": "E-KAGAKU-1",
        "group": "stations",
        "lat": 35.652790630763555,
        "lon": 101.85945081374402,
        "alt_km": 378.52362517432357,
        "timestamp": "2025-12-27T04:40:44.253888+00:00",
        "meta_object_name": "E-KAGAKU-1",
        "meta_object_id": "1998-067XQ",
        "meta_epoch": "2025-12-26T11:34:38.215200",
        "meta_mean_motion": 15.61326456,
        "meta_eccentricity": 0.00014737,
        "meta_inclination": 51.6304,
        "meta_ra_of_asc_node": 70.8185,
        "meta_arg_of_pericenter": 333.5123,
        "meta_mean_anomaly": 26.5795,
        "meta_ephemeris_type": 0,
        "meta_classification_type": "U",
        "meta_norad_cat_id": 65943,
        "meta_element_set_no": 999,
        "meta_rev_at_epoch": 1200,
        "meta_bstar": 0.0007949653,
        "meta_mean_motion_dot": 0.00069021,
        "meta_mean_motion_ddot": 0,
        "tle_line1": "1 65943U 98067XQ  25360.48238675  .00069021  00000+0  79497-3 0  9992",
        "tle_line2": "2 65943  51.6304  70.8185 0001473 333.5123  26.5795 15.61326456 12008"
      },
      "geometry": {
        "type": "Point",
        "coordinates": [
          101.85945081374402,
          35.652790630763555
        ]
      }
    },
    {
      "type": "Feature",
      "properties": {
        "norad_id": 66052,
        "name": "HRC MONOBLOCK CAMERA",
        "group": "stations",
        "lat": 51.59693424764117,
        "lon": 161.1493000409461,
        "alt_km": 395.85010069046893,
        "timestamp": "2025-12-27T04:40:44.253900+00:00",
        "meta_object_name": "HRC MONOBLOCK CAMERA",
        "meta_object_id": "1998-067XR",
        "meta_epoch": "2025-12-26T22:07:12.090144",
        "meta_mean_motion": 15.55129396,
        "meta_eccentricity": 0.00018933,
        "meta_inclination": 51.6303,
        "meta_ra_of_asc_node": 70.7432,
        "meta_arg_of_pericenter": 255.8095,
        "meta_mean_anomaly": 104.2686,
        "meta_ephemeris_type": 0,
        "meta_classification_type": "U",
        "meta_norad_cat_id": 66052,
        "meta_element_set_no": 999,
        "meta_rev_at_epoch": 1104,
        "meta_bstar": 0.00056122831,
        "meta_mean_motion_dot": 0.0003824,
        "meta_mean_motion_ddot": 0,
        "tle_line1": "1 66052U 98067XR  25360.92166771  .00038240  00000+0  56123-3 0  9990",
        "tle_line2": "2 66052  51.6303  70.7432 0001893 255.8095 104.2686 15.55129396 11046"
      },
      "geometry": {
        "type": "Point",
        "coordinates": [
          161.1493000409461,
          51.59693424764117
        ]
      }
    }
  ]
}